[{"OBJECT_NAME":"STARLINK-2299","OBJECT_ID":"2021-024BE","EPOCH":"2026-03-10T00:00:02.999808","MEAN_MOTION":15.15231686,"ECCENTRICITY":0.00013271,"INCLINATION":53.0911,"RA_OF_ASC_NODE":329.9231,"ARG_OF_PERICENTER":84.8975,"MEAN_ANOMALY":266.4896,"EPHEMERIS_TYPE":0,"CLASSIFICATION_TYPE":"U","NORAD_CAT_ID":48029,"ELEMENT_SET_NO":999,"REV_AT_EPOCH":574,"BSTAR":0.0017905191,"MEAN_MOTION_DOT":0.00033905,"MEAN_MOTION_DDOT":0},{"OBJECT_NAME":"FLOCK 4H-15","OBJECT_ID":"2025-276BE","EPOCH":"2026-03-09T17:00:11.631744","MEAN_MOTION":15.18339872,"ECCENTRICITY":0.00044925,"INCLINATION":97.4287,"RA_OF_ASC_NODE":143.9241,"ARG_OF_PERICENTER":23.8137,"MEAN_ANOMALY":336.3304,"EPHEMERIS_TYPE":0,"CLASSIFICATION_TYPE":"U","NORAD_CAT_ID":66718,"ELEMENT_SET_NO":999,"REV_AT_EPOCH":1531,"BSTAR":0.00037246212,"MEAN_MOTION_DOT":7.584e-5,"MEAN_MOTION_DDOT":0}]
